[{"OBJECT_NAME":"IRIDIUM 111","OBJECT_ID":"2017-003K","EPOCH":"2026-03-09T16:49:02.226144","MEAN_MOTION":14.34218028,"ECCENTRICITY":0.00021015,"INCLINATION":86.3976,"RA_OF_ASC_NODE":129.9805,"ARG_OF_PERICENTER":94.2487,"MEAN_ANOMALY":265.8949,"EPHEMERIS_TYPE":0,"CLASSIFICATION_TYPE":"U","NORAD_CAT_ID":41926,"ELEMENT_SET_NO":999,"REV_AT_EPOCH":47899,"BSTAR":1.777394e-5,"MEAN_MOTION_DOT":7.0e-7,"MEAN_MOTION_DDOT":0},{"OBJECT_NAME":"FENGYUN 1C DEB","OBJECT_ID":"1999-025BPL","EPOCH":"2026-03-08T14:35:44.299104","MEAN_MOTION":14.28166042,"ECCENTRICITY":0.00297656,"INCLINATION":99.4059,"RA_OF_ASC_NODE":121.2257,"ARG_OF_PERICENTER":168.018,"MEAN_ANOMALY":354.662,"EPHEMERIS_TYPE":0,"CLASSIFICATION_TYPE":"U","NORAD_CAT_ID":31302,"ELEMENT_SET_NO":999,"REV_AT_EPOCH":97583,"BSTAR":0.0018140886,"MEAN_MOTION_DOT":4.489e-5,"MEAN_MOTION_DDOT":0}]
